{
    "links": {
        "self": "http://www.neowsapp.com/rest/v1/neo/3731679?api_key=iIulBulltgU6a56xZRHN4H3l9WmuAYTsLGpBGhQ2"
    },
    "id": "3731679",
    "neo_reference_id": "3731679",
    "name": "(2015 TX346)",
    "designation": "2015 TX346",
    "nasa_jpl_url": "http://ssd.jpl.nasa.gov/sbdb.cgi?sstr=3731679",
    "absolute_magnitude_h": 21.0,
    "estimated_diameter": {
        "kilometers": {
            "estimated_diameter_min": 0.1677084622,
            "estimated_diameter_max": 0.3750075218
        },
        "meters": {
            "estimated_diameter_min": 167.7084621628,
            "estimated_diameter_max": 375.0075217981
        },
        "miles": {
            "estimated_diameter_min": 0.1042091748,
            "estimated_diameter_max": 0.2330187988
        },
        "feet": {
            "estimated_diameter_min": 550.2246310023,
            "estimated_diameter_max": 1230.3396778159
        }
    },
    "is_potentially_hazardous_asteroid": false,
    "close_approach_data": [
        {
            "close_approach_date": "1954-08-31",
            "close_approach_date_full": "1954-Aug-31 23:12",
            "epoch_date_close_approach": -483929280000,
            "relative_velocity": {
                "kilometers_per_second": "5.1710625636",
                "kilometers_per_hour": "18615.8252290117",
                "miles_per_hour": "11567.1498485489"
            },
            "miss_distance": {
                "astronomical": "0.3325646755",
                "lunar": "129.3676587695",
                "kilometers": "49750967.092041185",
                "miles": "30913817.458230953"
            },
            "orbiting_body": "Earth"
        },
        {
            "close_approach_date": "2015-09-04",
            "close_approach_date_full": "2015-Sep-04 05:57",
            "epoch_date_close_approach": 1441346220000,
            "relative_velocity": {
                "kilometers_per_second": "5.0170633714",
                "kilometers_per_hour": "18061.428136984",
                "miles_per_hour": "11222.6690554499"
            },
            "miss_distance": {
                "astronomical": "0.2791159377",
                "lunar": "108.5760997653",
                "kilometers": "41755149.762972699",
                "miles": "25945446.9563492862"
            },
            "orbiting_body": "Earth"
        },
        {
            "close_approach_date": "2102-09-08",
            "close_approach_date_full": "2102-Sep-08 12:09",
            "epoch_date_close_approach": 4187160540000,
            "relative_velocity": {
                "kilometers_per_second": "3.9261013607",
                "kilometers_per_hour": "14133.9648984606",
                "miles_per_hour": "8782.2961337129"
            },
            "miss_distance": {
                "astronomical": "0.2566823434",
                "lunar": "99.8494315826",
                "kilometers": "38399131.839248558",
                "miles": "23860114.1167157804"
            },
            "orbiting_body": "Earth"
        }
    ],
    "orbital_data": {
        "orbit_id": "12",
        "orbit_determination_date": "2017-04-06 08:31:11",
        "first_observation_date": "2015-10-02",
        "last_observation_date": "2015-12-06",
        "data_arc_in_days": 65,
        "observations_used": 57,
        "orbit_uncertainty": "6",
        "minimum_orbit_intersection": ".259065",
        "jupiter_tisserand_invariant": "3.145",
        "epoch_osculation": "2459000.5",
        "eccentricity": ".5399672609969262",
        "semi_major_axis": "2.669772585865501",
        "inclination": "7.302350231386232",
        "ascending_node_longitude": "91.7053071951855",
        "orbital_period": "1593.345032666095",
        "perihelion_distance": "1.228182795191026",
        "perihelion_argument": "255.3888022549834",
        "aphelion_distance": "4.111362376539977",
        "perihelion_time": "2458860.468798440857",
        "mean_anomaly": "31.6386165756828",
        "mean_motion": ".2259397635913316",
        "equinox": "J2000",
        "orbit_class": {
            "orbit_class_type": "AMO",
            "orbit_class_description": "Near-Earth asteroid orbits similar to that of 1221 Amor",
            "orbit_class_range": "1.017 AU < q (perihelion) < 1.3 AU"
        }
    },
    "is_sentry_object": false
}